$$SOE
2460721.500000000, A.D. 2025-Feb-15 00:00:00.0000, 8.666968743102571E+06, 4.626759580660296E+08, 8.211853176137197E+07,
2460728.500000000, A.D. 2025-Feb-22 00:00:00.0000, -1.575146347087268E+06, 4.627319667276703E+08, 8.280135583991805E+07,
2460735.500000000, A.D. 2025-Mar-01 00:00:00.0000, -1.181638867482220E+07, 4.625720552139356E+08, 8.344536564522016E+07,
2460742.500000000, A.D. 2025-Mar-08 00:00:00.0000, -2.205197257599249E+07, 4.621964335494761E+08, 8.405028725882822E+07,
2460749.500000000, A.D. 2025-Mar-15 00:00:00.0000, -3.227712072503609E+07, 4.616054202028564E+08, 8.461586666852561E+07,
2460756.500000000, A.D. 2025-Mar-22 00:00:00.0000, -4.248706899074873E+07, 4.607994420503415E+08, 8.514187008447590E+07,
2460763.500000000, A.D. 2025-Mar-29 00:00:00.0000, -5.267706989833806E+07, 4.597790320131464E+08, 8.562808393248710E+07,
2460770.500000000, A.D. 2025-Apr-05 00:00:00.0000, -6.284239437144726E+07, 4.585448275094947E+08, 8.607431475143853E+07,
2460777.500000000, A.D. 2025-Apr-12 00:00:00.0000, -7.297833367713295E+07, 4.570975698276039E+08, 8.648038917993432E+07,
2460784.500000000, A.D. 2025-Apr-19 00:00:00.0000, -8.308020175875477E+07, 4.554381035389011E+08, 8.684615397692665E+07,
2460791.500000000, A.D. 2025-Apr-26 00:00:00.0000, -9.314333768352456E+07, 4.535673757496267E+08, 8.717147603460586E+07,
2460798.500000000, A.D. 2025-May-03 00:00:00.0000, -1.031631080894782E+08, 4.514864352117246E+08, 8.745624237465990E+07,
2460805.500000000, A.D. 2025-May-10 00:00:00.0000, -1.131349096016802E+08, 4.491964313035789E+08, 8.770036012601706E+07,
2460812.500000000, A.D. 2025-May-17 00:00:00.0000, -1.230541711793405E+08, 4.466986128414626E+08, 8.790375647742203E+07,
2460819.500000000, A.D. 2025-May-24 00:00:00.0000, -1.329163562184220E+08, 4.439943266690822E+08, 8.806637858454648E+07,
2460826.500000000, A.D. 2025-May-31 00:00:00.0000, -1.427169639907393E+08, 4.410850163381115E+08, 8.818819341891703E+07,
2460833.500000000, A.D. 2025-Jun-07 00:00:00.0000, -1.524515308196306E+08, 4.379722220871944E+08, 8.826918769432560E+07,
2460840.500000000, A.D. 2025-Jun-14 00:00:00.0000, -1.621156333549442E+08, 4.346575814558755E+08, 8.830936803355488E+07,
2460847.500000000, A.D. 2025-Jun-21 00:00:00.0000, -1.717048927276762E+08, 4.311428272626690E+08, 8.830876099616671E+07,
2460854.500000000, A.D. 2025-Jun-28 00:00:00.0000, -1.812149764559138E+08, 4.274297847119777E+08, 8.826741282461885E+07,
2460861.500000000, A.D. 2025-Jul-05 00:00:00.0000, -1.906415996191480E+08, 4.235203697901028E+08, 8.818538922493032E+07,
2460868.500000000, A.D. 2025-Jul-12 00:00:00.0000, -1.999805264903146E+08, 4.194165881482098E+08, 8.806277522577751E+07,
2460875.500000000, A.D. 2025-Jul-19 00:00:00.0000, -2.092275724345026E+08, 4.151205338988574E+08, 8.789967505178463E+07,
2460882.500000000, A.D. 2025-Jul-26 00:00:00.0000, -2.183786058635110E+08, 4.106343882712286E+08, 8.769621198739010E+07,
2460889.500000000, A.D. 2025-Aug-02 00:00:00.0000, -2.274295501801836E+08, 4.059604181487206E+08, 8.745252822742632E+07,
2460896.500000000, A.D. 2025-Aug-09 00:00:00.0000, -2.363763856884859E+08, 4.011009744764244E+08, 8.716878471150388E+07,
2460903.500000000, A.D. 2025-Aug-16 00:00:00.0000, -2.452151513918260E+08, 3.960584904774812E+08, 8.684516093044354E+07,
2460910.500000000, A.D. 2025-Aug-23 00:00:00.0000, -2.539419463865654E+08, 3.908354796969531E+08, 8.648185467978485E+07,
2460917.500000000, A.D. 2025-Aug-30 00:00:00.0000, -2.625529305217400E+08, 3.854345345894225E+08, 8.607908178916733E+07,
2460924.500000000, A.D. 2025-Sep-06 00:00:00.0000, -2.710443257436934E+08, 3.798583266536415E+08, 8.563707604029529E+07,
2460931.500000000, A.D. 2025-Sep-13 00:00:00.0000, -2.794124197958319E+08, 3.741096056352944E+08, 8.515608922468103E+07,
2460938.500000000, A.D. 2025-Sep-20 00:00:00.0000, -2.876535689976794E+08, 3.681911961547992E+08, 8.463639090659055E+07,
2460945.500000000, A.D. 2025-Sep-27 00:00:00.0000, -2.957641990441655E+08, 3.621059948719533E+08, 8.407826804845810E+07,
2460952.500000000, A.D. 2025-Oct-04 00:00:00.0000, -3.037408058421272E+08, 3.558569687292985E+08, 8.348202472831227E+07,
2460959.500000000, A.D. 2025-Oct-11 00:00:00.0000, -3.115799567563802E+08, 3.494471533330680E+08, 8.284798190643153E+07,
2460966.500000000, A.D. 2025-Oct-18 00:00:00.0000, -3.192782919809273E+08, 3.428796511976269E+08, 8.217647719262238E+07,
2460973.500000000, A.D. 2025-Oct-25 00:00:00.0000, -3.268325258965483E+08, 3.361576298651068E+08, 8.146786460243970E+07,
2460980.500000000, A.D. 2025-Nov-01 00:00:00.0000, -3.342394483769399E+08, 3.292843199177646E+08, 8.072251430060957E+07,
2460987.500000000, A.D. 2025-Nov-08 00:00:00.0000, -3.414959260102819E+08, 3.222630128547913E+08, 7.994081232661678E+07,
2460994.500000000, A.D. 2025-Nov-15 00:00:00.0000, -3.485989030890382E+08, 3.150970587784060E+08, 7.912316028458734E+07,
2461001.500000000, A.D. 2025-Nov-22 00:00:00.0000, -3.555454019653208E+08, 3.077898641121703E+08, 7.826997497867571E+07,
2461008.500000000, A.D. 2025-Nov-29 00:00:00.0000, -3.623325229251361E+08, 3.003448904886228E+08, 7.738168810076176E+07,
2461015.500000000, A.D. 2025-Dec-06 00:00:00.0000, -3.689574458599625E+08, 2.927656546725871E+08, 7.645874616839105E+07,
2461022.500000000, A.D. 2025-Dec-13 00:00:00.0000, -3.754174333021563E+08, 2.850557261528809E+08, 7.550161039791016E+07,
2461029.500000000, A.D. 2025-Dec-20 00:00:00.0000, -3.817098313291683E+08, 2.772187234263955E+08, 7.451075627566193E+07,
2461036.500000000, A.D. 2025-Dec-27 00:00:00.0000, -3.878320694108931E+08, 2.692583115656826E+08, 7.348667313744894E+07,
2461043.500000000, A.D. 2026-Jan-03 00:00:00.0000, -3.937816606615505E+08, 2.611782004567636E+08, 7.242986384035645E+07,
2461050.500000000, A.D. 2026-Jan-10 00:00:00.0000, -3.995562023872058E+08, 2.529821430311685E+08, 7.134084446185258E+07,
2461057.500000000, A.D. 2026-Jan-17 00:00:00.0000, -4.051533766966485E+08, 2.446739334029107E+08, 7.022014399766243E+07,
2461064.500000000, A.D. 2026-Jan-24 00:00:00.0000, -4.105709510981412E+08, 2.362574049351674E+08, 6.906830405345242E+07,
2461071.500000000, A.D. 2026-Jan-31 00:00:00.0000, -4.158067790591497E+08, 2.277364282314594E+08, 6.788587852791044E+07,
2461078.500000000, A.D. 2026-Feb-07 00:00:00.0000, -4.208588004680145E+08, 2.191149089962390E+08, 6.667343327720968E+07,
2461085.500000000, A.D. 2026-Feb-14 00:00:00.0000, -4.257250417447495E+08, 2.103967857516875E+08, 6.543154573662860E+07,
2461092.500000000, A.D. 2026-Feb-21 00:00:00.0000, -4.304036152134251E+08, 2.015860279894127E+08, 6.416080451107773E+07,
2461099.500000000, A.D. 2026-Feb-28 00:00:00.0000, -4.348927188213962E+08, 1.926866359115431E+08, 6.286180912842708E+07,
2461106.500000000, A.D. 2026-Mar-07 00:00:00.0000, -4.391906382655992E+08, 1.837026398124440E+08, 6.153516998542019E+07,
2461113.500000000, A.D. 2026-Mar-14 00:00:00.0000, -4.432957487510630E+08, 1.746380967702295E+08, 6.018150804132306E+07,
2461120.500000000, A.D. 2026-Mar-21 00:00:00.0000, -4.472065145976431E+08, 1.654970875462974E+08, 5.880145433270380E+07,
2461127.500000000, A.D. 2026-Mar-28 00:00:00.0000, -4.509214887053428E+08, 1.562837147206783E+08, 5.739564957803969E+07,
2461134.500000000, A.D. 2026-Apr-04 00:00:00.0000, -4.544393124847676E+08, 1.470021010983324E+08, 5.596474384934322E+07,
2461141.500000000, A.D. 2026-Apr-11 00:00:00.0000, -4.577587159806944E+08, 1.376563880280988E+08, 5.450939625696014E+07,
2461148.500000000, A.D. 2026-Apr-18 00:00:00.0000, -4.608785180304143E+08, 1.282507336289126E+08, 5.303027463290534E+07,
2461155.500000000, A.D. 2026-Apr-25 00:00:00.0000, -4.637976264116910E+08, 1.187893109389455E+08, 5.152805521016272E+07,
2461162.500000000, A.D. 2026-May-02 00:00:00.0000, -4.665150379502668E+08, 1.092763059588503E+08, 5.000342229308389E+07,
2461169.500000000, A.D. 2026-May-09 00:00:00.0000, -4.690298384629440E+08, 9.971591552364333E+07, 4.845706790236691E+07,
2461176.500000000, A.D. 2026-May-16 00:00:00.0000, -4.713412021588454E+08, 9.011234514233208E+07, 4.688969137151031E+07,
2461183.500000000, A.D. 2026-May-23 00:00:00.0000, -4.734483904474519E+08, 8.046980782836303E+07, 4.530199897369686E+07,
2461190.500000000, A.D. 2026-May-30 00:00:00.0000, -4.753507522326398E+08, 7.079252424099448E+07, 4.369470379591926E+07,
2461197.500000000, A.D. 2026-Jun-06 00:00:00.0000, -4.770477260115911E+08, 6.108472086517081E+07, 4.206852562197610E+07,
2461204.500000000, A.D. 2026-Jun-13 00:00:00.0000, -4.785388401124240E+08, 5.135062643083242E+07, 4.042419050425795E+07,
2461211.500000000, A.D. 2026-Jun-20 00:00:00.0000, -4.798237115688570E+08, 4.159446949805917E+07, 3.876243030900349E+07,
2461218.500000000, A.D. 2026-Jun-27 00:00:00.0000, -4.809020453293511E+08, 3.182047686634697E+07, 3.708398236269088E+07,
2461225.500000000, A.D. 2026-Jul-04 00:00:00.0000, -4.817736338027762E+08, 2.203287203169102E+07, 3.538958913621318E+07,
2461232.500000000, A.D. 2026-Jul-11 00:00:00.0000, -4.824383564894329E+08, 1.223587355938720E+07, 3.367999793286674E+07,
2461239.500000000, A.D. 2026-Jul-18 00:00:00.0000, -4.828961796071797E+08, 2.433693398917368E+06, 3.195596057380253E+07,
2461246.500000000, A.D. 2026-Jul-25 00:00:00.0000, -4.831471556900641E+08, -7.369464855349472E+06, 3.021823307888217E+07,
2461253.500000000, A.D. 2026-Aug-01 00:00:00.0000, -4.831914231125153E+08, -1.716940780472721E+07, 2.846757533448663E+07,
2461260.500000000, A.D. 2026-Aug-08 00:00:00.0000, -4.830292053248208E+08, -2.696195422310325E+07, 2.670475072551793E+07,
2461267.500000000, A.D. 2026-Aug-15 00:00:00.0000, -4.826608093850619E+08, -3.674293671918474E+07, 2.493052573024248E+07,
2461274.500000000, A.D. 2026-Aug-22 00:00:00.0000, -4.820866245485353E+08, -4.650820186262978E+07, 2.314566964752450E+07,
2461281.500000000, A.D. 2026-Aug-29 00:00:00.0000, -4.813071232044391E+08, -5.625361014721231E+07, 2.135095455418506E+07,
2461288.500000000, A.D. 2026-Sep-05 00:00:00.0000, -4.803228620282831E+08, -6.597503865922117E+07, 1.954715506247505E+07,
$$EOE